TDRS 3                  
1 19548U 88091B   22353.38035414 -.00000283  00000+0  00000+0 0  9998
2 19548  13.5806 349.8883 0039069 331.0598 214.9594  1.00279522112591
FLTSATCOM 8 (USA 46)    
1 20253U 89077A   22353.04242519 -.00000063  00000+0  00000+0 0  9993
2 20253  12.8050 359.0051 0003065 169.8687   5.9388  1.00273665247817
SKYNET 4C               
1 20776U 90079A   22353.16716034  .00000142  00000+0  00000+0 0  9995
2 20776  13.7510 358.6777 0002864 273.1286 269.5227  1.00271078118091
TDRS 5                  
1 21639U 91054B   22352.75326955  .00000100  00000+0  00000+0 0  9995
2 21639  14.2232   3.2112 0025607 349.2468 198.6564  1.00264632114911
TDRS 6                  
1 22314U 93003B   22353.37762014 -.00000279  00000+0  00000+0 0  9999
2 22314  14.1421   6.4711 0007437 144.1656  27.4169  1.00273283109616
UFO 2 (USA 95)          
1 22787U 93056A   22352.74688297  .00000144  00000+0  00000+0 0  9991
2 22787  11.5110  10.1736 0005225 255.4815 119.2815  1.00274401105753
USA 99 (MILSTAR-1 1)    
1 22988U 94009A   22352.65145279 -.00000181  00000+0  00000+0 0  9993
2 22988  15.6424  41.1761 0003682 228.5432 322.0860  1.00271750 20161
USA 107 (DSP 17)        
1 23435U 94084A   22353.52624456 -.00000151  00000+0  00000+0 0  9997
2 23435  14.5764   4.2846 0000826 260.8347 275.9480  1.00274282 20166
UFO 4 (USA 108)         
1 23467U 95003A   22353.34929150 -.00000004  00000+0  00000+0 0  9990
2 23467   9.8087  17.2165 0002501 195.8869 172.8796  1.00268704102160
AMSC 1                  
1 23553U 95019A   22353.51896933 -.00000076  00000+0  00000+0 0  9993
2 23553  12.1176  24.9947 0005983 247.3302 255.1165  1.00272999101386
TDRS 7                  
1 23613U 95035B   22353.47541925 -.00000186  00000+0  00000+0 0  9993
2 23613  13.9065 357.1757 0024061  51.1464 295.7442  1.00272296100452
USA 115 (MILSTAR-1 2)   
1 23712U 95060A   22352.17703617 -.00000002  00000+0  00000+0 0  9992
2 23712  13.5958  12.9438 0002856 246.9779 130.5442  1.00271176 20084
INMARSAT 3-F1           
1 23839U 96020A   22353.51324861 -.00000338  00000+0  00000+0 0  9990
2 23839   7.9219  56.9012 0004580 185.8199 151.0023  0.99991812 97495
INMARSAT 3-F2           
1 24307U 96053A   22352.95639337 -.00000033  00000+0  00000+0 0  9993
2 24307   6.9357  65.5697 0002234 197.2734 169.3649  1.00001694 96161
AMC-1 (GE-1)            
1 24315U 96054A   22353.38946797  .00000087  00000+0  00000+0 0  9990
2 24315   6.0557  71.5624 0003408 202.0512 183.6736  1.00273055 33533
INMARSAT 3-F3           
1 24674U 96070A   22353.43794823  .00000035  00000+0  00000+0 0  9996
2 24674   7.5325  60.4562 0005301 195.8209 233.3988  0.99981890 95152
GALAXY 25 (G-25)        
1 24812U 97026A   22341.16091227  .00000039  00000+0  00000+0 0  9991
2 24812   4.1191  81.9100 0010396 270.6553 207.1521  1.00120521 93463
INTELSAT 5 (IS-5)       
1 24916U 97046A   22352.59972926 -.00000041  00000+0  00000+0 0  9995
2 24916   7.6208  59.7593 0005778 193.1334 216.3286  1.00271722 92827
AMC-3 (GE-3)            
1 24936U 97050A   22353.39773222 -.00000236  00000+0  00000+0 0  9995
2 24936   4.9956  77.7281 0003003 184.2139 257.2269  1.00271928 39640
USA 134                 
1 25019U 97065A   22352.64709455 -.00000043  00000+0  00000+0 0  9994
2 25019  11.2652  30.3442 0002789 289.2689 248.2947  1.00275392 20155
ASTRA 1G                
1 25071U 97076A   22352.81678928  .00000138  00000+0  00000+0 0  9997
2 25071   6.6651  66.8539 0003589 204.5554 129.4742  1.00274819 91706
INMARSAT 3-F5           
1 25153U 98006B   22353.36314490 -.00000267  00000+0  00000+0 0  9998
2 25153   6.8106  64.4849 0004994 206.0394 254.1689  1.00274070 91101
UFO 8 (USA 138)         
1 25258U 98016A   22353.28247576  .00000131  00000+0  00000+0 0  9995
2 25258   9.6270  29.1393 0001762 229.4784 127.6104  1.00339110 91051
ASTRA 2A                
1 25462U 98050A   22352.96772483  .00000094  00000+0  00000+0 0  9992
2 25462   3.8637  83.5779 0003020 186.0839 223.4616  1.00272299 33548
SKYNET 4E               
1 25639U 99009B   22352.81260538 -.00000016  00000+0  00000+0 0  9995
2 25639  11.3398  15.9457 0003478 247.2426 115.5243  1.00273465 87220
ABS-7                   
1 25894U 99046A   22353.25379851  .00000153  00000+0  00000+0 0  9998
2 25894   3.2264  85.6584 0000862 134.7460  11.5232  0.99956180 84322
ABS-6                   
1 25924U 99053A   22353.34667656 -.00000091  00000+0  00000+0 0  9995
2 25924   0.0211 310.7772 0002330 300.4339 120.5286  1.00276029 85054
AMC-4 (GE-4)            
1 25954U 99060A   22353.36066550  .00000114  00000+0  00000+0 0  9999
2 25954   1.9854  89.7154 0002973 191.3429 161.8329  1.00272146 30756
UFO 10 (USA 146)        
1 25967U 99063A   22352.93452060 -.00000167  00000+0  00000+0 0  9992
2 25967   8.9383  32.8084 0003712 213.9298 154.2911  1.00274553 84556
GALAXY 11 (G-11)        
1 26038U 99071A   22353.33414670 -.00000137  00000+0  00000+0 0  9998
2 26038   3.4896  85.3375 0001729 232.6721 157.0994  1.00271016 84290
USA 148                 
1 26052U 00001A   22353.35094764  .00000057  00000+0  00000+0 0  9999
2 26052   9.8297  41.2836 0001923 231.8129 121.2792  1.00272489 20163
ASIASTAR                
1 26107U 00016A   22352.60476039 -.00000310  00000+0  00000+0 0  9995
2 26107   6.1111  70.4657 0004791 200.7656 138.6708  1.00269146 83119
USA 149 (DSP 20)        
1 26356U 00024A   22353.28203994  .00000113  00000+0  00000+0 0  9993
2 26356  12.2153  20.3099 0000652 108.0346 255.6730  1.00262925 20126
TDRS 8                  
1 26388U 00034A   22352.61553729 -.00000216  00000+0  00000+0 0  9994
2 26388  10.6579  41.2776 0018436 330.6534  26.2657  1.00269659 82376
INTELSAT 9 (IS-9)       
1 26451U 00043A   22353.01819333 -.00000266  00000+0  00000+0 0  9991
2 26451   7.6057  59.9338 0003612 202.5667 141.6666  1.00271306 31343
NSS-11 (AAP-1)          
1 26554U 00059A   22353.35007600  .00000052  00000+0  00000+0 0  9997
2 26554   0.0263 314.5915 0002458 319.1583 116.2072  1.00270432 28493
USA 153                 
1 26575U 00065A   22352.55270084 -.00000305  00000+0  00000+0 0  9998
2 26575   9.4107  44.6180 0002342 239.6262 136.2795  1.00267390 20139
AMC-6 (GE-6)            
1 26580U 00067A   22353.38233859  .00000132  00000+0  00000+0 0  9994
2 26580   0.0169 329.4845 0002046 296.2220 180.8960  1.00269915 81126
INTELSAT 1R (IS-1R)     
1 26608U 00072A   22353.24424535 -.00000114  00000+0  00000+0 0  9990
2 26608   4.8620  78.7091 0000159  40.7941 213.3465  1.00271455 28522
ANIK F1                 
1 26624U 00076A   22353.37558469 -.00000035  00000+0  00000+0 0  9992
2 26624   1.9019  90.3647 0002533 139.7518 243.8681  1.00272416 30354
ASTRA 2D                
1 26638U 00081A   22352.88927634  .00000150  00000+0  00000+0 0  9999
2 26638   7.6827  59.0393 0002092 214.1496 158.1023  1.00273671 40119
AMC-8 (GE-8)            
1 26639U 00081B   22353.34188249 -.00000260  00000+0  00000+0 0  9996
2 26639   2.8265  87.8357 0004967 206.1874  51.8154  0.99152491 80533
USA 157 (MILSTAR-2 2)   
1 26715U 01009A   22352.71639069  .00000032  00000+0  00000+0 0  9999
2 26715  10.1840  26.4653 0003933 228.3879 326.2189  1.00266796 20156
EUTELSAT 133 WEST A     
1 26719U 01011A   22353.37060556 -.00000024  00000+0  00000+0 0  9990
2 26719   4.1679  80.9544 0004553 150.0923 233.2872  1.00518034 79758
INTELSAT 10 (IS-10)     
1 26766U 01019A   22352.61603005  .00000057  00000+0  00000+0 0  9993
2 26766   6.0135  71.7720 0003975 194.3795 220.6357  1.00272843 32827
INTELSAT 901 (IS-901)   
1 26824U 01024A   22353.32341253 -.00000174  00000+0  00000+0 0  9998
2 26824   0.0137  33.5169 0000699 267.3369 235.9931  1.00270184 10198
ASTRA 2C                
1 26853U 01025A   22353.39773267 -.00000234  00000+0  00000+0 0  9999
2 26853   5.0199  77.5367 0003086 201.5001 239.6070  1.00267809 32253
USA 159 (DSP 21)        
1 26880U 01033A   22353.33329684 -.00000279  00000+0  00000+0 0  9991
2 26880  11.5907  24.6543 0000937  37.4496  96.7087  1.00268521 20177
INTELSAT 902 (IS-902)   
1 26900U 01039A   22353.30496433 -.00000256  00000+0  00000+0 0  9999
2 26900   2.8710  86.9508 0003584 193.6557 226.9468  1.00269820 77907
USA 164 (MILSTAR-2 3)   
1 27168U 02001A   22353.31873641  .00000120  00000+0  00000+0 0  9996
2 27168   9.7021  28.2627 0002725 241.8195 311.5581  1.00275871 18855
INTELSAT 904 (IS-904)   
1 27380U 02007A   22353.23741147 -.00000188  00000+0  00000+0 0  9999
2 27380   3.6985  83.9564 0002976 193.8088 226.0158  1.00272499 38974
TDRS 9                  
1 27389U 02011A   22353.01646632 -.00000267  00000+0  00000+0 0  9990
2 27389   9.4125  59.1348 0026360 294.0843  38.0798  1.00269226 77646
NSS-7                   
1 27414U 02019A   22353.07826994 -.00000135  00000+0  00000+0 0  9998
2 27414   6.3305  69.7774 0002763 208.0022 178.0400  1.00271595 75775
DIRECTV 5 (TEMPO 1)     
1 27426U 02023A   22353.37558532 -.00000029  00000+0  00000+0 0  9991
2 27426   1.5962  90.9949 0003062 177.3192 204.7406  1.00271851 75333
INTELSAT 905 (IS-905)   
1 27438U 02027A   22353.23837029 -.00000159  00000+0  00000+0 0  9998
2 27438   3.5208  84.6729 0002565 181.0549 243.4235  1.00271200 38575
GALAXY 3C (G-3C)        
1 27445U 02030A   22353.38493001 -.00000124  00000+0  00000+0 0  9996
2 27445   0.4482  91.9322 0001234 228.0988 171.6782  1.00270601 33707
EUTELSAT 5 WEST A       
1 27460U 02035A   22353.31394234 -.00000016  00000+0  00000+0 0  9999
2 27460   2.7704  87.2833 0005611 188.2641 280.3733  1.00272170 74822
INTELSAT 906 (IS-906)   
1 27513U 02041A   22353.04085622  .00000040  00000+0  00000+0 0  9999
2 27513   2.5399  88.3619 0004844 175.2165 262.8837  1.00272465 74239
TDRS 10                 
1 27566U 02055A   22353.34805831  .00000110  00000+0  00000+0 0  9995
2 27566   8.5415  48.9149 0005798 311.6431  41.5914  1.00276725 73435
